{
  "type": "FeatureCollection",
  "features": [
    {
      "type": "Feature",
      "properties": {
        "name": "High Risk Area - Industrial Zone",
        "risk_level": "high",
        "description": "Elevated PM2.5 and industrial pollution levels"
      },
      "geometry": {
        "type": "Polygon",
        "coordinates": [[
          [121.5315, 25.0423],
          [121.5330, 25.0423],
          [121.5330, 25.0438],
          [121.5315, 25.0438],
          [121.5315, 25.0423]
        ]]
      }
    }
  ]
}